NORAD_CAT_ID,OBJECT_NAME,OBJECT_TYPE,EPOCH,MEAN_MOTION,ECCENTRICITY,INCLINATION,RA_OF_ASC_NODE,ARG_OF_PERICENTER,MEAN_ANOMALY,BSTAR,MEAN_MOTION_DOT,MEAN_MOTION_DDOT,TLE_LINE0,TLE_LINE1,TLE_LINE2,SEMIMAJOR_AXIS,PERIOD,APOGEE,PERIGEE,DECAYED
54090.0,STARLINK-5177,PAYLOAD,2024-04-03 21:12:55,15.08840175,9.24e-05,53.2147,258.023,90.3948,269.715,0.00010168,1.331e-05,0.0,0 STARLINK-5177,1 54090U 22136AR  24094.88397405  .00001331  00000-0  10168-3 0  9992,2 54090  53.2147 258.0230 0000924  90.3948 269.7150 15.08840175 80580,6917.88,95.438,540.384,539.106,0.0
54090.0,STARLINK-5177,PAYLOAD,2024-04-04 14:42:10,15.08838931,8.66e-05,53.2148,254.7518,98.815,261.294,5.9967e-05,6.67e-06,0.0,0 STARLINK-5177,1 54090U 22136AR  24095.61261793  .00000667  00000-0  59967-4 0  9996,2 54090  53.2148 254.7518 0000866  98.8150 261.2940 15.08838931 80699,6917.884,95.438,540.348,539.15,0.0
54090.0,STARLINK-5177,PAYLOAD,2024-04-04 17:52:56,15.08842386,8.98e-05,53.2161,254.1573,85.298,274.8115,7.2063e-05,8.59e-06,0.0,0 STARLINK-5177,1 54090U 22136AR  24095.74509572  .00000859  00000-0  72063-4 0  9995,2 54090  53.2161 254.1573 0000898  85.2980 274.8115 15.08842386 81183,6917.873,95.437,540.359,539.117,0.0
54090.0,STARLINK-5177,PAYLOAD,2024-04-05 14:32:56,15.08842406,0.0001071,53.2176,250.2931,83.77,276.3414,0.00013536,1.867e-05,0.0,0 STARLINK-5177,1 54090U 22136AR  24096.60621437  .00001867  00000-0  13536-3 0  9995,2 54090  53.2176 250.2931 0001071  83.7700 276.3414 15.08842406 80845,6917.873,95.437,540.479,538.997,0.0
54090.0,STARLINK-5177,PAYLOAD,2024-04-05 17:43:42,15.08845422,0.0001083,53.2175,249.6984,82.0346,278.0769,0.00016076,2.272e-05,0.0,0 STARLINK-5177,1 54090U 22136AR  24096.73869207  .00002272  00000-0  16076-3 0  9991,2 54090  53.2175 249.6984 0001083  82.0346 278.0769 15.08845422 80860,6917.864,95.437,540.478,538.98,0.0
54090.0,STARLINK-5177,PAYLOAD,2024-04-06 03:16:01,15.08842332,0.0001124,53.2166,247.9134,80.9027,279.2092,5.3433e-05,5.63e-06,0.0,0 STARLINK-5177,1 54090U 22136AR  24097.13613279  .00000563  00000-0  53433-4 0  9992,2 54090  53.2166 247.9134 0001124  80.9027 279.2092 15.08842332 81395,6917.873,95.437,540.516,538.961,0.0
54090.0,STARLINK-5177,PAYLOAD,2024-04-06 09:37:34,15.0884002,0.0001091,53.2162,246.7233,80.5375,279.5741,7.1111e-05,8.44e-06,0.0,0 STARLINK-5177,1 54090U 22136AR  24097.40109415  .00000844  00000-0  71111-4 0  9999,2 54090  53.2162 246.7233 0001091  80.5375 279.5741 15.08840020 80961,6917.88,95.438,540.5,538.991,0.0
54090.0,STARLINK-5177,PAYLOAD,2024-04-06 15:59:07,15.08836418,0.0001279,53.2171,245.5354,82.3258,277.7879,-9.7726e-06,-4.43e-06,0.0,0 STARLINK-5177,1 54090U 22136AR  24097.66605747 -.00000443  00000-0 -97726-5 0  9994,2 54090  53.2171 245.5354 0001279  82.3258 277.7879 15.08836418 81475,6917.891,95.438,540.641,538.872,0.0
54090.0,STARLINK-5177,PAYLOAD,2024-04-07 09:28:22,15.08836948,0.000138,53.2166,242.2644,79.7833,280.3315,1.2731e-06,-2.68e-06,0.0,0 STARLINK-5177,1 54090U 22136AR  24098.39469960 -.00000268  00000-0  12731-5 0  9997,2 54090  53.2166 242.2644 0001380  79.7833 280.3315 15.08836948 81111,6917.89,95.438,540.709,538.8,0.0
54090.0,STARLINK-5177,PAYLOAD,2024-04-07 15:49:54,15.08842888,0.0001344,53.2172,241.0754,80.9956,279.1188,4.9043e-05,4.93e-06,0.0,0 STARLINK-5177,1 54090U 22136AR  24098.65965765  .00000493  00000-0  49043-4 0  9994,2 54090  53.2172 241.0754 0001344  80.9956 279.1188 15.08842888 81155,6917.872,95.437,540.666,538.807,0.0
54090.0,STARLINK-5177,PAYLOAD,2024-04-08 02:57:37,15.08824759,0.0001252,53.217,238.9942,87.4458,272.6678,0.00029636,4.43e-05,0.0,0 STARLINK-5177,1 54090U 22136AR  24099.12334558  .00004430  00000-0  29636-3 0  9997,2 54090  53.2170 238.9942 0001252  87.4458 272.6678 15.08824759 81692,6917.927,95.439,540.658,538.926,0.0
54090.0,STARLINK-5177,PAYLOAD,2024-04-08 09:19:09,15.0883796,0.0001288,53.2168,237.8045,81.756,278.3578,0.00012534,1.707e-05,0.0,0 STARLINK-5177,1 54090U 22136AR  24099.38829986  .00001707  00000-0  12534-3 0  9992,2 54090  53.2168 237.8045 0001288  81.7560 278.3578 15.08837960 81736,6917.887,95.438,540.643,538.861,0.0
54090.0,STARLINK-5177,PAYLOAD,2024-04-08 15:40:41,15.0883346,0.000121,53.2167,236.6137,94.768,265.345,0.0003183,4.781e-05,0.0,0 STARLINK-5177,1 54090U 22136AR  24099.65326071  .00004781  00000-0  31830-3 0  9994,2 54090  53.2167 236.6137 0001210  94.7680 265.3450 15.08833460 81305,6917.9,95.438,540.602,538.928,0.0
54090.0,STARLINK-5177,PAYLOAD,2024-04-09 09:09:56,15.08840681,0.0001179,53.2152,233.3423,95.1034,265.0093,9.6471e-05,1.248e-05,0.0,0 STARLINK-5177,1 54090U 22136AR  24100.38189893  .00001248  00000-0  96471-4 0  9994,2 54090  53.2152 233.3423 0001179  95.1034 265.0093 15.08840681 81418,6917.878,95.438,540.559,538.928,0.0
54090.0,STARLINK-5177,PAYLOAD,2024-04-09 15:31:28,15.08843704,0.0001137,53.2157,232.1543,88.5581,271.5542,0.00011729,1.58e-05,0.0,0 STARLINK-5177,1 54090U 22136AR  24100.64685677  .00001580  00000-0  11729-3 0  9995,2 54090  53.2157 232.1543 0001137  88.5581 271.5542 15.08843704 81926,6917.869,95.437,540.521,538.948,0.0
54090.0,STARLINK-5177,PAYLOAD,2024-04-10 15:22:16,15.08839999,3.05e-05,53.206,227.6869,33.1332,326.968,-0.00010482,-1.955e-05,0.0,0 STARLINK-5177,1 54090U 22136AR  24101.64046455 -.00001955  00000-0 -10482-3 0  9994,2 54090  53.2060 227.6869 0000305  33.1332 326.9680 15.08839999 81609,6917.88,95.438,539.956,539.534,0.0
54090.0,STARLINK-5177,PAYLOAD,2024-04-10 18:33:02,15.08833827,0.0001126,53.2084,227.0937,86.736,273.3761,-2.1637e-05,-6.32e-06,0.0,0 STARLINK-5177,1 54090U 22136AR  24101.77294678 -.00000632  00000-0 -21637-4 0  9996,2 54090  53.2084 227.0937 0001126  86.7360 273.3761 15.08833827 82095,6917.899,95.438,540.543,538.985,0.0
54090.0,STARLINK-5177,PAYLOAD,2024-04-11 13:37:39,15.08843755,0.0001355,53.2176,223.5292,89.7538,270.3609,6.2524e-05,7.07e-06,0.0,0 STARLINK-5177,1 54090U 22136AR  24102.56782086  .00000707  00000-0  62524-4 0  9990,2 54090  53.2176 223.5292 0001355  89.7538 270.3609 15.08843755 82219,6917.869,95.437,540.671,538.797,0.0
54090.0,STARLINK-5177,PAYLOAD,2024-04-11 15:13:02,15.08844295,0.000121,53.2159,223.2342,91.6131,268.5,8.4149e-05,1.052e-05,0.0,0 STARLINK-5177,1 54090U 22136AR  24102.63405865  .00001052  00000-0  84149-4 0  9996,2 54090  53.2159 223.2342 0001210  91.6131 268.5000 15.08844295 81756,6917.867,95.437,540.569,538.895,0.0
54090.0,STARLINK-5177,PAYLOAD,2024-04-12 11:53:04,15.08830436,0.0001693,53.2173,219.3708,106.6651,253.4528,9.5616e-05,1.234e-05,0.0,0 STARLINK-5177,1 54090U 22136AR  24103.49519078  .00001234  00000-0  95616-4 0  9996,2 54090  53.2173 219.3708 0001693 106.6651 253.4528 15.08830436 82350,6917.91,95.438,540.946,538.603,0.0
54090.0,STARLINK-5177,PAYLOAD,2024-04-12 13:28:27,15.08831761,0.0001826,53.2179,219.0737,106.5133,253.606,0.00011546,1.55e-05,0.0,0 STARLINK-5177,1 54090U 22136AR  24103.56142970  .00001550  00000-0  11546-3 0  9997,2 54090  53.2179 219.0737 0001826 106.5133 253.6060 15.08831761 81890,6917.906,95.438,541.034,538.507,0.0
54090.0,STARLINK-5177,PAYLOAD,2024-04-12 15:03:50,15.08838945,0.0001511,53.2185,218.7723,87.8438,272.2727,8.5985e-05,1.081e-05,0.0,0 STARLINK-5177,1 54090U 22136AR  24103.62766690  .00001081  00000-0  85985-4 0  9993,2 54090  53.2185 218.7723 0001511  87.8438 272.2727 15.08838945 81908,6917.884,95.438,540.794,538.703,0.0
54090.0,STARLINK-5177,PAYLOAD,2024-04-13 13:19:14,15.08839151,0.0001528,53.2182,214.6098,90.7132,269.4035,5.4982e-05,5.87e-06,0.0,0 STARLINK-5177,1 54090U 22136AR  24104.55502995  .00000587  00000-0  54982-4 0  9995,2 54090  53.2182 214.6098 0001528  90.7132 269.4035 15.08839151 82043,6917.883,95.438,540.805,538.691,0.0
54090.0,STARLINK-5177,PAYLOAD,2024-04-13 14:54:37,15.08842867,0.0001514,53.2176,214.3123,64.22,295.8948,3.1243e-05,2.09e-06,0.0,0 STARLINK-5177,1 54090U 22136AR  24104.62126886  .00000209  00000-0  31243-4 0  9990,2 54090  53.2176 214.3123 0001514  64.2200 295.8948 15.08842867 82054,6917.872,95.437,540.784,538.689,0.0
54090.0,STARLINK-5177,PAYLOAD,2024-04-14 11:34:38,15.08836718,0.0001592,53.2178,210.4466,69.9268,290.1895,0.00028858,4.307e-05,0.0,0 STARLINK-5177,1 54090U 22136AR  24105.48238849  .00004307  00000-0  28858-3 0  9998,2 54090  53.2178 210.4466 0001592  69.9268 290.1895 15.08836718 82658,6917.89,95.438,540.857,538.654,0.0
54090.0,STARLINK-5177,PAYLOAD,2024-04-14 14:45:24,15.08829825,0.000195,53.2181,209.852,64.7392,295.3802,0.00056157,8.658e-05,0.0,0 STARLINK-5177,1 54090U 22136AR  24105.61486770  .00008658  00000-0  56157-3 0  9997,2 54090  53.2181 209.8520 0001950  64.7392 295.3802 15.08829825 82201,6917.911,95.438,541.125,538.427,0.0
54090.0,STARLINK-5177,PAYLOAD,2024-04-15 13:00:48,15.08847406,0.000212,53.2168,205.6881,59.075,301.045,0.0001672,2.374e-05,0.0,0 STARLINK-5177,1 54090U 22136AR  24106.54222415  .00002374  00000-0  16720-3 0  9995,2 54090  53.2168 205.6881 0002120  59.0750 301.0450 15.08847406 82811,6917.858,95.437,541.189,538.256,0.0
54090.0,STARLINK-5177,PAYLOAD,2024-04-15 16:11:33,15.08855097,0.0001798,53.2164,205.0901,63.5405,296.5771,0.00020678,3.006e-05,0.0,0 STARLINK-5177,1 54090U 22136AR  24106.67469779  .00003006  00000-0  20678-3 0  9995,2 54090  53.2164 205.0901 0001798  63.5405 296.5771 15.08855097 82832,6917.834,95.437,540.943,538.455,0.0
54090.0,STARLINK-5177,PAYLOAD,2024-04-16 00:08:29,15.08844441,0.000178,53.2176,203.6061,73.3078,286.811,3.1058e-05,2.06e-06,0.0,0 STARLINK-5177,1 54090U 22136AR  24107.00590204  .00000206  00000-0  31058-4 0  9995,2 54090  53.2176 203.6061 0001780  73.3078 286.8110 15.08844441 82887,6917.867,95.437,540.963,538.5,0.0
54090.0,STARLINK-5177,PAYLOAD,2024-04-16 12:51:34,15.08854897,0.0001683,53.2181,201.2272,95.6949,264.4235,9.8206e-05,1.276e-05,0.0,0 STARLINK-5177,1 54090U 22136AR  24107.53581584  .00001276  00000-0  98206-4 0  9990,2 54090  53.2181 201.2272 0001683  95.6949 264.4235 15.08854897 82962,6917.835,95.437,540.864,538.536,0.0
